satname,norad_id,inclination_deg,eccentricity,mean_motion_rev_per_day,perigee_km,apogee_km,l1,l2
STARLINK-1564,46058,53.1618,0.0001218,15.30192757,474.40195488092195,476.07143671321865,1 46058U 20055AH  26155.09440172 -.00000251  00000+0  36355-5 0  9996,2 46058  53.1618  73.0276 0001218  85.9386 274.1754 15.30192757322293
STARLINK-1570,46059,53.1589,0.0001184,15.31700572,469.9273832895924,471.5491969582936,1 46059U 20055AJ  26155.07129753 -.00000433  00000+0 -21877-5 0  9990,2 46059  53.1589  72.1079 0001184  91.2650 268.8487 15.31700572322269
STARLINK-1572,46060,53.1589,0.0001275,15.30202238,474.33458562600845,476.0821886997346,1 46060U 20055AK  26155.92449716  .00003579  00000+0  13290-3 0  9990,2 46060  53.1589  68.9180 0001275  87.0296 273.0850 15.30202238322398
STARLINK-1573,46061,53.1605,0.0001349,15.31720536,469.7548739135964,471.6026844108137,1 46061U 20055AL  26155.05730251  .00004144  00000+0  14514-3 0  9991,2 46061  53.1605  72.1393 0001349  76.4176 283.6976 15.31720536322306
STARLINK-1577,46063,53.1603,0.0001198,15.31708486,469.89420658447034,471.53519145155497,1 46063U 20055AN  26155.08525999  .00002180  00000+0  81973-4 0  9999,2 46063  53.1603  72.0052 0001198  80.4562 279.6575 15.31708486322303
STARLINK-1583,46064,53.1623,0.000176,15.31708518,469.50920574632164,471.920001510799,1 46064U 20055AP  26155.03406531  .00002736  00000+0  99868-4 0  9994,2 46064  53.1623  72.7457 0001760 147.0428 213.0684 15.31708518322284
STARLINK-1536,46070,53.16,0.0001181,15.31705966,469.9133606750047,471.53106122063036,1 46070U 20055AV  26155.03536301  .00004023  00000+0  14130-3 0  9999,2 46070  53.1600  60.1275 0001181 124.3642 235.7472 15.31705966322468
STARLINK-1542,46073,53.1591,0.0002442,15.31101364,470.85214771267965,474.1980110722561,1 46073U 20055AY  26155.77755013  .00495294  00000+0  15221-1 0  9990,2 46073  53.1591  59.6416 0002442  74.1650 285.9621 15.31101364322524
STARLINK-1549,46074,53.0504,0.0003624,15.29005914,476.29776737518205,481.2676627846713,1 46074U 20055AZ  26155.01306353  .00041267  00000+0  14497-2 0  9999,2 46074  53.0504  60.3364 0003624 105.5986 254.5413 15.29005914322435
STARLINK-1551,46075,53.1592,0.000108,15.30196272,474.48603735228426,475.96636380360906,1 46075U 20055BA  26155.21597801  .00000551  00000+0  30717-4 0  9998,2 46075  53.1592  59.1576 0001080  79.7312 280.3811 15.30196272322488
STARLINK-1552,46076,53.1612,0.0001235,15.31702983,469.88526786157126,471.57693828303036,1 46076U 20055BB  26155.01234832  .00005459  00000+0  18753-3 0  9996,2 46076  53.1612  59.7548 0001235  83.7298 276.3844 15.31702983322447
STARLINK-1559,46077,53.0247,0.0002235,15.37570261,451.7699249262887,454.823575812703,1 46077U 20055BC  26151.97087342  .00055356  00000+0  14792-2 0  9999,2 46077  53.0247  43.8150 0002235  83.6696 276.4560 15.37570261322361
STARLINK-1566,46079,53.1606,0.0001243,15.31700125,469.88830724298714,471.59093797136666,1 46079U 20055BE  26155.21272400  .00002153  00000+0  81122-4 0  9993,2 46079  53.1606  58.6739 0001243 112.8133 247.3000 15.31700125322497
STARLINK-1568,46080,53.0593,0.0003245,15.53905933,403.13357634946715,407.5360495560735,1 46080U 20055BF  26155.72728663  .00046574  00000+0  71320-3 0  9991,2 46080  53.0593 335.3400 0003245  67.5178 292.6175 15.53905933323699
STARLINK-1578,46082,53.1606,0.0001382,15.31707686,469.7705721210268,471.6635953897767,1 46082U 20055BH  26152.21559112  .00000455  00000+0  26425-4 0  9990,2 46082  53.1606  73.1428 0001382  96.8905 263.2254 15.31707686322026
STARLINK-1579,46083,53.1616,0.000155,15.31697342,469.6863414344116,471.80949575917566,1 46083U 20055BJ  26155.20341161  .00006175  00000+0  21062-3 0  9992,2 46083  53.1616  58.7687 0001550  45.9847 314.1282 15.31697342322485
STARLINK-1622,46128,53.0143,0.0006937,15.83574024,315.6962154298999,324.98968651387804,1 46128U 20057M   26156.00002315  .00227936  00000+0  99328-3 0  9998,2 46128  53.0143 150.3876 0006937  48.7306 287.4080 15.83574024  6051
STARLINK-1623,46129,53.0402,0.0006217,15.73950692,343.4373655894515,351.80017031131956,1 46129U 20057N   26155.25351506  .00114890  00000+0  78530-3 0  9990,2 46129  53.0402 192.0895 0006217  18.3091 341.8150 15.73950692320464
STARLINK-1596,46141,53.034,0.0007015,15.58922627,386.02556219517464,395.5223442625547,1 46141U 20057AA  26155.24282376  .00096823  00000+0  12160-2 0  9992,2 46141  53.0340 174.2385 0007015  17.6035 342.5218 15.58922627320713
STARLINK-1597,46142,53.0407,0.0004269,15.73731417,345.37201458790696,351.1149982642928,1 46142U 20057AB  26155.00002315  .00061553  00000+0  42966-3 0  9990,2 46142  53.0407 233.0897 0004269  20.7952 117.0312 15.73731417  5982
STARLINK-1606,46144,53.033,0.0003408,15.9132274,296.304987063043,300.8558376513056,1 46144U 20057AD  26156.00002315  .01236878  70288-3  38106-2 0  9997,2 46144  53.0330 181.4372 0003408  29.2443 319.0113 15.91322740  5760
STARLINK-1608,46146,53.1583,0.0004047,15.35592544,456.3939876847335,461.928096720093,1 46146U 20057AF  26154.62208059  .00054617  00000+0  15555-2 0  9990,2 46146  53.1583 269.0026 0004047 331.9452  28.1333 15.35592544319359
STARLINK-1667,46155,53.0107,0.0007521,15.88993345,300.07753807970494,310.13046919737826,1 46155U 20057AQ  26156.00002315  .00322118  00000+0  10656-2 0  9992,2 46155  53.0107 149.6951 0007521  52.4998 248.7272 15.88993345  5963
STARLINK-1545,46156,53.0369,0.0006515,15.8236727,319.3818622045137,328.11441854242094,1 46156U 20057AR  26156.00002315  .00413613  00000+0  18652-2 0  9998,2 46156  53.0369 185.8697 0006515 357.3987 337.5273 15.82367270  6055
STARLINK-1595,46159,53.0415,0.0004677,15.71490706,351.4869459519705,357.7847816887879,1 46159U 20057AU  26154.49347837  .00105740  00000+0  80408-3 0  9991,2 46159  53.0415 238.2933 0004677   7.7452 352.3636 15.71490706321008
STARLINK-1598,46160,53.0436,2.65e-05,15.71270602,355.0861663975711,355.44303668245266,1 46160U 20057AV  26154.46737726  .00095780  00000+0  73674-3 0  9999,2 46160  53.0436 224.5746 0000265 259.7001 100.3986 15.71270602321180
STARLINK-1626,46167,53.0403,0.0003706,15.71373998,352.473938417751,357.46451675363824,1 46167U 20057BC  26154.52410018  .00094928  00000+0  72697-3 0  9992,2 46167  53.0403 233.7965 0003706   1.1844 358.9182 15.71373998319811
STARLINK-1633,46171,53.033,0.000324,15.80412527,327.0999796189817,331.44638141595624,1 46171U 20057BG  26156.00002315  .00851456  00000+0  39906-2 0  9991,2 46171  53.0330 187.7174 0003240 355.2157 306.9066 15.80412527  6042
